{"type": "FeatureCollection", "features": [ {"type": "Feature", "properties": {"norad_id": 30840, "name": "FENGYUN 1C DEB", "group": "fengyun-1c-debris", "lat": -8.594397430282761, "lon": 166.7363850174434, "alt_km": 820.2679849234883, "timestamp": "2025-12-02T07:10:09.394354+00:00", "meta": {"OBJECT_NAME": "FENGYUN 1C DEB", "OBJECT_ID": "1999-025AWA", "EPOCH": "2025-12-01T12:14:31.770816", "MEAN_MOTION": 14.60930788, "ECCENTRICITY": 0.0218986, "INCLINATION": 98.0238, "RA_OF_ASC_NODE": 347.1929, "ARG_OF_PERICENTER": 45.7838, "MEAN_ANOMALY": 316.1118, "EPHEMERIS_TYPE": 0, "CLASSIFICATION_TYPE": "U", "NORAD_CAT_ID": 30840, "ELEMENT_SET_NO": 999, "REV_AT_EPOCH": 72967, "BSTAR": 0.00070514114, "MEAN_MOTION_DOT": 4.803e-05, "MEAN_MOTION_DDOT": 0}, "tle": {"line1": "1 30840U 99025AWA 25335.51008994  .00004803  00000+0  70514-3 0  9998", "line2": "2 30840  98.0238 347.1929 0218986  45.7838 316.1118 14.60930788729679"}}, "geometry": {"type": "Point", "coordinates": [166.7363850174434, -8.594397430282761]}}, {"type": "Feature", "properties": {"norad_id": 30843, "name": "FENGYUN 1C DEB", "group": "fengyun-1c-debris", "lat": -24.945128203489343, "lon": 51.51812706285889, "alt_km": 828.5448070640568, "timestamp": "2025-12-02T07:10:09.394365+00:00", "meta": {"OBJECT_NAME": "FENGYUN 1C DEB", "OBJECT_ID": "1999-025AWD", "EPOCH": "2025-12-01T11:26:53.483424", "MEAN_MOTION": 14.5243982, "ECCENTRICITY": 0.01487122, "INCLINATION": 98.8437, "RA_OF_ASC_NODE": 46.4995, "ARG_OF_PERICENTER": 153.4979, "MEAN_ANOMALY": 207.3919, "EPHEMERIS_TYPE": 0, "CLASSIFICATION_TYPE": "U", "NORAD_CAT_ID": 30843, "ELEMENT_SET_NO": 999, "REV_AT_EPOCH": 99161, "BSTAR": 0.00026683281, "MEAN_MOTION_DOT": 1.2e-05, "MEAN_MOTION_DDOT": 0}, "tle": {"line1": "1 30843U 99025AWD 25335.47700791  .00001200  00000+0  26683-3 0  9996", "line2": "2 30843  98.8437  46.4995 0148712 153.4979 207.3919 14.52439820991612"}}, "geometry": {"type": "Point", "coordinates": [51.51812706285889, -24.945128203489343]}}, {"type": "Feature", "properties": {"norad_id": 30845, "name": "FENGYUN 1C DEB", "group": "fengyun-1c-debris", "lat": -38.041988045547654, "lon": 151.48798473720177, "alt_km": 955.5059866747224, "timestamp": "2025-12-02T07:10:09.394376+00:00", "meta": {"OBJECT_NAME": "FENGYUN 1C DEB", "OBJECT_ID": "1999-025AWF", "EPOCH": "2025-12-01T05:58:26.179104", "MEAN_MOTION": 13.76843246, "ECCENTRICITY": 0.0192165, "INCLINATION": 98.3794, "RA_OF_ASC_NODE": 337.1847, "ARG_OF_PERICENTER": 301.7823, "MEAN_ANOMALY": 118.1524, "EPHEMERIS_TYPE": 0, "CLASSIFICATION_TYPE": "U", "NORAD_CAT_ID": 30845, "ELEMENT_SET_NO": 999, "REV_AT_EPOCH": 94085, "BSTAR": 0.00046616, "MEAN_MOTION_DOT": 4.87e-06, "MEAN_MOTION_DDOT": 0}, "tle": {"line1": "1 30845U 99025AWF 25335.24891411  .00000487  00000+0  46616-3 0  9997", "line2": "2 30845  98.3794 337.1847 0192165 301.7823 118.1524 13.76843246940855"}}, "geometry": {"type": "Point", "coordinates": [151.48798473720177, -38.041988045547654]}}, {"type": "Feature", "properties": {"norad_id": 30846, "name": "FENGYUN 1C DEB", "group": "fengyun-1c-debris", "lat": 9.431634363066951, "lon": -29.87533696060891, "alt_km": 792.3896627846234, "timestamp": "2025-12-02T07:10:09.394386+00:00", "meta": {"OBJECT_NAME": "FENGYUN 1C DEB", "OBJECT_ID": "1999-025AWG", "EPOCH": "2025-12-01T10:38:23.349984", "MEAN_MOTION": 14.4144902, "ECCENTRICITY": 0.00543118, "INCLINATION": 99.3209, "RA_OF_ASC_NODE": 147.6289, "ARG_OF_PERICENTER": 9.5921, "MEAN_ANOMALY": 44.2258, "EPHEMERIS_TYPE": 0, "CLASSIFICATION_TYPE": "U", "NORAD_CAT_ID": 30846, "ELEMENT_SET_NO": 999, "REV_AT_EPOCH": 97767, "BSTAR": 0.00088134083, "MEAN_MOTION_DOT": 2.858e-05, "MEAN_MOTION_DDOT": 0}, "tle": {"line1": "1 30846U 99025AWG 25335.44332581  .00002858  00000+0  88134-3 0  9993", "line2": "2 30846  99.3209 147.6289 0054311   9.5921  44.2258 14.41449020977672"}}, "geometry": {"type": "Point", "coordinates": [-29.87533696060891, 9.431634363066951]}}, {"type": "Feature", "properties": {"norad_id": 30847, "name": "FENGYUN 1C DEB", "group": "fengyun-1c-debris", "lat": 79.68790393753167, "lon": 79.00052853189344, "alt_km": 824.9468593351694, "timestamp": "2025-12-02T07:10:09.394396+00:00", "meta": {"OBJECT_NAME": "FENGYUN 1C DEB", "OBJECT_ID": "1999-025AWH", "EPOCH": "2025-12-01T03:55:28.449408", "MEAN_MOTION": 14.1688816, "ECCENTRICITY": 0.0065294, "INCLINATION": 98.7319, "RA_OF_ASC_NODE": 135.5241, "ARG_OF_PERICENTER": 1.6684, "MEAN_ANOMALY": 54.9234, "EPHEMERIS_TYPE": 0, "CLASSIFICATION_TYPE": "U", "NORAD_CAT_ID": 30847, "ELEMENT_SET_NO": 999, "REV_AT_EPOCH": 95891, "BSTAR": 0.002077, "MEAN_MOTION_DOT": 4.211e-05, "MEAN_MOTION_DDOT": 0}, "tle": {"line1": "1 30847U 99025AWH 25335.16352372  .00004211  00000+0  20770-2 0  9999", "line2": "2 30847  98.7319 135.5241 0065294   1.6684  54.9234 14.16888160958915"}}, "geometry": {"type": "Point", "coordinates": [79.00052853189344, 79.68790393753167]}}, {"type": "Feature", "properties": {"norad_id": 30848, "name": "FENGYUN 1C DEB", "group": "fengyun-1c-debris", "lat": -66.09173845992561, "lon": -30.4662392049848, "alt_km": 799.1571475692463, "timestamp": "2025-12-02T07:10:09.394406+00:00", "meta": {"OBJECT_NAME": "FENGYUN 1C DEB", "OBJECT_ID": "1999-025AWJ", "EPOCH": "2025-12-01T11:36:01.149696", "MEAN_MOTION": 14.34367504, "ECCENTRICITY": 0.00441697, "INCLINATION": 99.0607, "RA_OF_ASC_NODE": 169.7771, "ARG_OF_PERICENTER": 8.2795, "MEAN_ANOMALY": 351.9108, "EPHEMERIS_TYPE": 0, "CLASSIFICATION_TYPE": "U", "NORAD_CAT_ID": 30848, "ELEMENT_SET_NO": 999, "REV_AT_EPOCH": 97145, "BSTAR": 0.0013321586, "MEAN_MOTION_DOT": 3.741e-05, "MEAN_MOTION_DDOT": 0}, "tle": {"line1": "1 30848U 99025AWJ 25335.48334664  .00003741  00000+0  13322-2 0  9991", "line2": "2 30848  99.0607 169.7771 0044169   8.2795 351.9108 14.34367504971459"}}, "geometry": {"type": "Point", "coordinates": [-30.4662392049848, -66.09173845992561]}}, {"type": "Feature", "properties": {"norad_id": 30849, "name": "FENGYUN 1C DEB", "group": "fengyun-1c-debris", "lat": 12.653150063285066, "lon": -141.86164416945246, "alt_km": 853.1423552770384, "timestamp": "2025-12-02T07:10:09.394416+00:00", "meta": {"OBJECT_NAME": "FENGYUN 1C DEB", "OBJECT_ID": "1999-025AWK", "EPOCH": "2025-11-30T20:49:49.458720", "MEAN_MOTION": 14.18757654, "ECCENTRICITY": 0.00486086, "INCLINATION": 99.0495, "RA_OF_ASC_NODE": 34.6284, "ARG_OF_PERICENTER": 40.9853, "MEAN_ANOMALY": 21.9296, "EPHEMERIS_TYPE": 0, "CLASSIFICATION_TYPE": "U", "NORAD_CAT_ID": 30849, "ELEMENT_SET_NO": 999, "REV_AT_EPOCH": 96204, "BSTAR": 0.001416423, "MEAN_MOTION_DOT": 2.932e-05, "MEAN_MOTION_DDOT": 0}, "tle": {"line1": "1 30849U 99025AWK 25334.86793355  .00002932  00000+0  14164-2 0  9995", "line2": "2 30849  99.0495  34.6284 0048608  40.9853  21.9296 14.18757654962042"}}, "geometry": {"type": "Point", "coordinates": [-141.86164416945246, 12.653150063285066]}}, {"type": "Feature", "properties": {"norad_id": 30850, "name": "FENGYUN 1C DEB", "group": "fengyun-1c-debris", "lat": -14.367286386940243, "lon": 20.22214191295074, "alt_km": 776.9459510701481, "timestamp": "2025-12-02T07:10:09.394426+00:00", "meta": {"OBJECT_NAME": "FENGYUN 1C DEB", "OBJECT_ID": "1999-025AWL", "EPOCH": "2025-11-29T13:56:56.246784", "MEAN_MOTION": 14.16119722, "ECCENTRICITY": 0.01101947, "INCLINATION": 98.3938, "RA_OF_ASC_NODE": 199.8275, "ARG_OF_PERICENTER": 236.4308, "MEAN_ANOMALY": 152.4439, "EPHEMERIS_TYPE": 0, "CLASSIFICATION_TYPE": "U", "NORAD_CAT_ID": 30850, "ELEMENT_SET_NO": 999, "REV_AT_EPOCH": 95612, "BSTAR": 0.0022004811, "MEAN_MOTION_DOT": 4.575e-05, "MEAN_MOTION_DDOT": 0}, "tle": {"line1": "1 30850U 99025AWL 25333.58120656  .00004575  00000+0  22005-2 0  9991", "line2": "2 30850  98.3938 199.8275 0110194 236.4308 152.4439 14.16119722956126"}}, "geometry": {"type": "Point", "coordinates": [20.22214191295074, -14.367286386940243]}}, {"type": "Feature", "properties": {"norad_id": 30852, "name": "FENGYUN 1C DEB", "group": "fengyun-1c-debris", "lat": 42.662766747007474, "lon": -13.794872451690443, "alt_km": 885.0881174996557, "timestamp": "2025-12-02T07:10:09.394436+00:00", "meta": {"OBJECT_NAME": "FENGYUN 1C DEB", "OBJECT_ID": "1999-025AWN", "EPOCH": "2025-12-01T13:56:09.575232", "MEAN_MOTION": 14.10253696, "ECCENTRICITY": 0.00556195, "INCLINATION": 98.7346, "RA_OF_ASC_NODE": 353.6528, "ARG_OF_PERICENTER": 266.6816, "MEAN_ANOMALY": 92.7991, "EPHEMERIS_TYPE": 0, "CLASSIFICATION_TYPE": "U", "NORAD_CAT_ID": 30852, "ELEMENT_SET_NO": 999, "REV_AT_EPOCH": 96225, "BSTAR": 0.00049804868, "MEAN_MOTION_DOT": 8.52e-06, "MEAN_MOTION_DDOT": 0}, "tle": {"line1": "1 30852U 99025AWN 25335.58066638  .00000852  00000+0  49805-3 0  9996", "line2": "2 30852  98.7346 353.6528 0055619 266.6816  92.7991 14.10253696962258"}}, "geometry": {"type": "Point", "coordinates": [-13.794872451690443, 42.662766747007474]}}, {"type": "Feature", "properties": {"norad_id": 30856, "name": "FENGYUN 1C DEB", "group": "fengyun-1c-debris", "lat": -59.47623405402662, "lon": 175.59560649794898, "alt_km": 691.4999804630697, "timestamp": "2025-12-02T07:10:09.394446+00:00", "meta": {"OBJECT_NAME": "FENGYUN 1C DEB", "OBJECT_ID": "1999-025AWS", "EPOCH": "2025-12-01T11:46:02.003808", "MEAN_MOTION": 14.45513052, "ECCENTRICITY": 0.00897903, "INCLINATION": 98.2032, "RA_OF_ASC_NODE": 160.6523, "ARG_OF_PERICENTER": 272.6852, "MEAN_ANOMALY": 141.9041, "EPHEMERIS_TYPE": 0, "CLASSIFICATION_TYPE": "U", "NORAD_CAT_ID": 30856, "ELEMENT_SET_NO": 999, "REV_AT_EPOCH": 96363, "BSTAR": 0.0058580829, "MEAN_MOTION_DOT": 0.00021729, "MEAN_MOTION_DDOT": 0}, "tle": {"line1": "1 30856U 99025AWS 25335.49030097  .00021729  00000+0  58581-2 0  9996", "line2": "2 30856  98.2032 160.6523 0089790 272.6852 141.9041 14.45513052963633"}}, "geometry": {"type": "Point", "coordinates": [175.59560649794898, -59.47623405402662]}}]}